CCSDS_OMM_VERS = 2.0
CREATION_DATE  = 
ORIGINATOR     = 

OBJECT_NAME    = STARLINK-36515
OBJECT_ID      = 2026-005AC
CENTER_NAME    = EARTH
REF_FRAME      = TEME
TIME_SYSTEM    = UTC
MEAN_ELEMENT_THEORY = SGP/SGP4

EPOCH          = 2026-02-05T12:08:04.125984
MEAN_MOTION    = 15.50627275
ECCENTRICITY   = .0001361
INCLINATION    = 43.0000
RA_OF_ASC_NODE = 62.3981
ARG_OF_PERICENTER = 260.0615
MEAN_ANOMALY   = 100.0092

EPHEMERIS_TYPE = 0
CLASSIFICATION_TYPE = U
NORAD_CAT_ID   = 67430
ELEMENT_SET_NO = 999
REV_AT_EPOCH   = 373
BSTAR          = .23184E-2
MEAN_MOTION_DOT = .138335E-2
MEAN_MOTION_DDOT = 0

CCSDS_OMM_VERS = 2.0
CREATION_DATE  = 
ORIGINATOR     = 

OBJECT_NAME    = STARLINK-36443
OBJECT_ID      = 2026-005AD
CENTER_NAME    = EARTH
REF_FRAME      = TEME
TIME_SYSTEM    = UTC
MEAN_ELEMENT_THEORY = SGP/SGP4

EPOCH          = 2026-02-05T00:00:02.000160
MEAN_MOTION    = 15.50570460
ECCENTRICITY   = .00012157
INCLINATION    = 42.9999
RA_OF_ASC_NODE = 65.3396
ARG_OF_PERICENTER = 255.1630
MEAN_ANOMALY   = 165.0888

EPHEMERIS_TYPE = 0
CLASSIFICATION_TYPE = U
NORAD_CAT_ID   = 67431
ELEMENT_SET_NO = 999
REV_AT_EPOCH   = 488
BSTAR          = -.54315575E-3
MEAN_MOTION_DOT = -.32065E-3
MEAN_MOTION_DDOT = 0

CCSDS_OMM_VERS = 2.0
CREATION_DATE  = 
ORIGINATOR     = 

OBJECT_NAME    = STARLINK-36460
OBJECT_ID      = 2026-005AE
CENTER_NAME    = EARTH
REF_FRAME      = TEME
TIME_SYSTEM    = UTC
MEAN_ELEMENT_THEORY = SGP/SGP4

EPOCH          = 2026-02-05T12:06:05.613696
MEAN_MOTION    = 15.50630751
ECCENTRICITY   = .0001168
INCLINATION    = 42.9998
RA_OF_ASC_NODE = 62.3871
ARG_OF_PERICENTER = 266.0227
MEAN_ANOMALY   = 94.0500

EPHEMERIS_TYPE = 0
CLASSIFICATION_TYPE = U
NORAD_CAT_ID   = 67432
ELEMENT_SET_NO = 999
REV_AT_EPOCH   = 373
BSTAR          = .23066E-2
MEAN_MOTION_DOT = .137634E-2
MEAN_MOTION_DDOT = 0

CCSDS_OMM_VERS = 2.0
CREATION_DATE  = 
ORIGINATOR     = 

OBJECT_NAME    = YAOGAN-50 01
OBJECT_ID      = 2026-006A
CENTER_NAME    = EARTH
REF_FRAME      = TEME
TIME_SYSTEM    = UTC
MEAN_ELEMENT_THEORY = SGP/SGP4

EPOCH          = 2026-02-05T22:19:51.366432
MEAN_MOTION    = 13.83241322
ECCENTRICITY   = .00007548
INCLINATION    = 142.0319
RA_OF_ASC_NODE = 301.4709
ARG_OF_PERICENTER = 262.3525
MEAN_ANOMALY   = 97.7109

EPHEMERIS_TYPE = 0
CLASSIFICATION_TYPE = U
NORAD_CAT_ID   = 67433
ELEMENT_SET_NO = 999
REV_AT_EPOCH   = 325
BSTAR          = .22656557E-3
MEAN_MOTION_DOT = .439E-5
MEAN_MOTION_DDOT = 0

CCSDS_OMM_VERS = 2.0
CREATION_DATE  = 
ORIGINATOR     = 

OBJECT_NAME    = CZ-6A R/B
OBJECT_ID      = 2026-006B
CENTER_NAME    = EARTH
REF_FRAME      = TEME
TIME_SYSTEM    = UTC
MEAN_ELEMENT_THEORY = SGP/SGP4

EPOCH          = 2026-02-05T17:32:07.232064
MEAN_MOTION    = 14.62306145
ECCENTRICITY   = .0203544
INCLINATION    = 142.0437
RA_OF_ASC_NODE = 314.8736
ARG_OF_PERICENTER = 251.4779
MEAN_ANOMALY   = 106.3743

EPHEMERIS_TYPE = 0
CLASSIFICATION_TYPE = U
NORAD_CAT_ID   = 67434
ELEMENT_SET_NO = 999
REV_AT_EPOCH   = 339
BSTAR          = .2608E-3
MEAN_MOTION_DOT = .2128E-4
MEAN_MOTION_DDOT = 0

CCSDS_OMM_VERS = 2.0
CREATION_DATE  = 
ORIGINATOR     = 

OBJECT_NAME    = HULIANWANG DIGUI-137
OBJECT_ID      = 2026-007A
CENTER_NAME    = EARTH
REF_FRAME      = TEME
TIME_SYSTEM    = UTC
MEAN_ELEMENT_THEORY = SGP/SGP4

EPOCH          = 2026-02-05T21:08:07.471392
MEAN_MOTION    = 13.76593365
ECCENTRICITY   = .00005788
INCLINATION    = 50.0142
RA_OF_ASC_NODE = 202.3826
ARG_OF_PERICENTER = 45.0466
MEAN_ANOMALY   = 315.0474

EPHEMERIS_TYPE = 0
CLASSIFICATION_TYPE = U
NORAD_CAT_ID   = 67435
ELEMENT_SET_NO = 999
REV_AT_EPOCH   = 323
BSTAR          = .15997193E-3
MEAN_MOTION_DOT = .17E-6
MEAN_MOTION_DDOT = 0

CCSDS_OMM_VERS = 2.0
CREATION_DATE  = 
ORIGINATOR     = 

OBJECT_NAME    = HULIANWANG DIGUI-138
OBJECT_ID      = 2026-007B
CENTER_NAME    = EARTH
REF_FRAME      = TEME
TIME_SYSTEM    = UTC
MEAN_ELEMENT_THEORY = SGP/SGP4

EPOCH          = 2026-02-05T21:15:56.612160
MEAN_MOTION    = 13.76232388
ECCENTRICITY   = .00009829
INCLINATION    = 50.0095
RA_OF_ASC_NODE = 202.4131
ARG_OF_PERICENTER = 37.3200
MEAN_ANOMALY   = 322.7760

EPHEMERIS_TYPE = 0
CLASSIFICATION_TYPE = U
NORAD_CAT_ID   = 67436
ELEMENT_SET_NO = 999
REV_AT_EPOCH   = 323
BSTAR          = .15662762E-3
MEAN_MOTION_DOT = .12E-6
MEAN_MOTION_DDOT = 0

CCSDS_OMM_VERS = 2.0
CREATION_DATE  = 
ORIGINATOR     = 

OBJECT_NAME    = HULIANWANG DIGUI-139
OBJECT_ID      = 2026-007C
CENTER_NAME    = EARTH
REF_FRAME      = TEME
TIME_SYSTEM    = UTC
MEAN_ELEMENT_THEORY = SGP/SGP4

EPOCH          = 2026-02-05T21:11:37.440672
MEAN_MOTION    = 13.76155143
ECCENTRICITY   = .00001551
INCLINATION    = 50.0013
RA_OF_ASC_NODE = 202.3857
ARG_OF_PERICENTER = 0.6522
MEAN_ANOMALY   = 359.4370

EPHEMERIS_TYPE = 0
CLASSIFICATION_TYPE = U
NORAD_CAT_ID   = 67437
ELEMENT_SET_NO = 999
REV_AT_EPOCH   = 323
BSTAR          = .18989602E-3
MEAN_MOTION_DOT = .45E-6
MEAN_MOTION_DDOT = 0

CCSDS_OMM_VERS = 2.0
CREATION_DATE  = 
ORIGINATOR     = 

OBJECT_NAME    = HULIANWANG DIGUI-140
OBJECT_ID      = 2026-007D
CENTER_NAME    = EARTH
REF_FRAME      = TEME
TIME_SYSTEM    = UTC
MEAN_ELEMENT_THEORY = SGP/SGP4

EPOCH          = 2026-02-05T17:51:13.807584
MEAN_MOTION    = 13.76236204
ECCENTRICITY   = .00028522
INCLINATION    = 49.9963
RA_OF_ASC_NODE = 202.9792
ARG_OF_PERICENTER = 211.2197
MEAN_ANOMALY   = 148.8526

EPHEMERIS_TYPE = 0
CLASSIFICATION_TYPE = U
NORAD_CAT_ID   = 67438
ELEMENT_SET_NO = 999
REV_AT_EPOCH   = 321
BSTAR          = .18194973E-3
MEAN_MOTION_DOT = .37E-6
MEAN_MOTION_DDOT = 0

CCSDS_OMM_VERS = 2.0
CREATION_DATE  = 
ORIGINATOR     = 

OBJECT_NAME    = HULIANWANG DIGUI-141
OBJECT_ID      = 2026-007E
CENTER_NAME    = EARTH
REF_FRAME      = TEME
TIME_SYSTEM    = UTC
MEAN_ELEMENT_THEORY = SGP/SGP4

EPOCH          = 2026-02-05T17:34:04.870848
MEAN_MOTION    = 13.76973880
ECCENTRICITY   = .00012987
INCLINATION    = 49.9987
RA_OF_ASC_NODE = 202.9120
ARG_OF_PERICENTER = 218.1167
MEAN_ANOMALY   = 141.9634

EPHEMERIS_TYPE = 0
CLASSIFICATION_TYPE = U
NORAD_CAT_ID   = 67439
ELEMENT_SET_NO = 999
REV_AT_EPOCH   = 321
BSTAR          = .16055047E-3
MEAN_MOTION_DOT = .18E-6
MEAN_MOTION_DDOT = 0

CCSDS_OMM_VERS = 2.0
CREATION_DATE  = 
ORIGINATOR     = 

OBJECT_NAME    = HULIANWANG DIGUI-142
OBJECT_ID      = 2026-007F
CENTER_NAME    = EARTH
REF_FRAME      = TEME
TIME_SYSTEM    = UTC
MEAN_ELEMENT_THEORY = SGP/SGP4

EPOCH          = 2026-02-05T14:00:37.900800
MEAN_MOTION    = 13.77657136
ECCENTRICITY   = .00010082
INCLINATION    = 50.0137
RA_OF_ASC_NODE = 203.5016
ARG_OF_PERICENTER = 244.1790
MEAN_ANOMALY   = 115.9000

EPHEMERIS_TYPE = 0
CLASSIFICATION_TYPE = U
NORAD_CAT_ID   = 67440
ELEMENT_SET_NO = 999
REV_AT_EPOCH   = 319
BSTAR          = -.858742E-6
MEAN_MOTION_DOT = -.142E-5
MEAN_MOTION_DDOT = 0

CCSDS_OMM_VERS = 2.0
CREATION_DATE  = 
ORIGINATOR     = 

OBJECT_NAME    = HULIANWANG DIGUI-143
OBJECT_ID      = 2026-007G
CENTER_NAME    = EARTH
REF_FRAME      = TEME
TIME_SYSTEM    = UTC
MEAN_ELEMENT_THEORY = SGP/SGP4

EPOCH          = 2026-02-05T10:27:15.237792
MEAN_MOTION    = 13.78216176
ECCENTRICITY   = .00004471
INCLINATION    = 50.0086
RA_OF_ASC_NODE = 204.0407
ARG_OF_PERICENTER = 222.0977
MEAN_ANOMALY   = 137.9882

EPHEMERIS_TYPE = 0
CLASSIFICATION_TYPE = U
NORAD_CAT_ID   = 67441
ELEMENT_SET_NO = 999
REV_AT_EPOCH   = 317
BSTAR          = .15917435E-3
MEAN_MOTION_DOT = .2E-6
MEAN_MOTION_DDOT = 0

