STARLINK-36515          
1 67430U 26005AC  26036.50560331  .00138335  00000+0  23184-2 0  9995
2 67430  43.0000  62.3981 0001361 260.0615 100.0092 15.50627275  3734
STARLINK-36443          
1 67431U 26005AD  26036.00002315 -.00032065  00000+0 -54316-3 0  9991
2 67431  42.9999  65.3396 0001215 255.1630 165.0888 15.50570460  4887
STARLINK-36460          
1 67432U 26005AE  26036.50423164  .00137634  00000+0  23066-2 0  9999
2 67432  42.9998  62.3871 0001168 266.0227  94.0500 15.50630751  3737
YAOGAN-50 01            
1 67433U 26006A   26036.93045563  .00000439  00000+0  22657-3 0  9999
2 67433 142.0319 301.4709 0000754 262.3525  97.7109 13.83241322  3252
CZ-6A R/B               
1 67434U 26006B   26036.73063926  .00002128  00000+0  26080-3 0  9992
2 67434 142.0437 314.8736 0203544 251.4779 106.3743 14.62306145  3393
HULIANWANG DIGUI-137    
1 67435U 26007A   26036.88064203  .00000017  00000+0  15997-3 0  9999
2 67435  50.0142 202.3826 0000578  45.0466 315.0474 13.76593365  3237
HULIANWANG DIGUI-138    
1 67436U 26007B   26036.88607190  .00000012  00000+0  15663-3 0  9993
2 67436  50.0095 202.4131 0000982  37.3200 322.7760 13.76232388  3232
HULIANWANG DIGUI-139    
1 67437U 26007C   26036.88307223  .00000045  00000+0  18990-3 0  9990
2 67437  50.0013 202.3857 0000155   0.6522 359.4370 13.76155143  3236
HULIANWANG DIGUI-140    
1 67438U 26007D   26036.74390981  .00000037  00000+0  18195-3 0  9997
2 67438  49.9963 202.9792 0002852 211.2197 148.8526 13.76236204  3215
HULIANWANG DIGUI-141    
1 67439U 26007E   26036.73200082  .00000018  00000+0  16055-3 0  9991
2 67439  49.9987 202.9120 0001298 218.1167 141.9634 13.76973880  3215
HULIANWANG DIGUI-142    
1 67440U 26007F   26036.58377200 -.00000142  00000+0 -85874-6 0  9991
2 67440  50.0137 203.5016 0001008 244.1790 115.9000 13.77657136  3197
HULIANWANG DIGUI-143    
1 67441U 26007G   26036.43559303  .00000020  00000+0  15917-3 0  9993
2 67441  50.0086 204.0407 0000447 222.0977 137.9882 13.78216176  3175
